1 43070U 17083A 26161.94216646 .00000029 00000+0 33552-5 0 9990 
2 43070 86.3962 324.6271 0002161 91.3788 268.7655 14.34217681443255 
1 43071U 17083B 26162.17684287 .00000109 00000+0 31873-4 0 9999 
2 43071 86.3977 324.2235 0002388 87.9541 272.1928 14.34218043443274 
1 43072U 17083C 26162.00559221 .00000035 00000+0 53623-5 0 9997 
2 43072 86.3959 324.5864 0001885 95.2789 264.8622 14.34217473443289 
1 43073U 17083D 26161.97387820 -.00000104 00000+0 -44358-4 0 9990 
2 43073 86.3964 324.8745 0001839 88.9003 271.2403 14.34217327443225 
1 43074U 17083E 26162.15781459 .00000040 00000+0 71792-5 0 9998 
2 43074 86.3962 324.5805 0002125 92.0496 268.0944 14.34217609443271 
1 43075U 17083F 26162.19586994 .00000001 00000+0 -67420-5 0 9991 
2 43075 86.3958 324.5724 0001982 89.7481 270.3942 14.34217545443244 
1 43076U 17083G 26162.20855527 .00000042 00000+0 80089-5 0 9995 
2 43076 86.3963 324.6598 0002079 103.4108 256.7320 14.34217532443311 
1 43077U 17083H 26162.20221268 .00000071 00000+0 18289-4 0 9999 
2 43077 86.3959 324.4935 0002207 90.7280 269.4169 14.34217920443315 
1 43078U 17083J 26162.08462318 .00000011 00000+0 -32999-5 0 9999 
2 43078 86.3955 293.0229 0002204 90.7564 269.3884 14.34217527444408 
1 43079U 17083K 26162.18952772 -.00000002 00000+0 -77711-5 0 9991 
2 43079 86.3962 324.6845 0002101 91.8268 268.3169 14.34217316443243 
1 43249U 18030A 26162.09096530 .00000019 00000+0 -17113-6 0 9992 
2 43249 86.3952 292.9495 0001962 96.1135 264.0284 14.34217426429263 
1 43250U 18030B 26162.09730790 .00000026 00000+0 22698-5 0 9997 
2 43250 86.3951 292.9140 0002142 93.4906 266.6535 14.34217733429288 
1 43251U 18030C 26161.90703036 .00000013 00000+0 -22994-5 0 9996 
2 43251 86.3953 293.0465 0002077 94.3172 265.8261 14.34217549429232 
1 43252U 18030D 26162.06559482 .00000016 00000+0 -14284-5 0 9995 
2 43252 86.3953 292.9928 0002011 93.0061 267.1365 14.34217587429317 
1 43253U 18030E 26162.12267744 .00000173 00000+0 54621-4 0 9991 
2 43253 86.3954 292.9410 0001894 98.6779 261.4632 14.34217344429258 
1 43254U 18030F 26162.10365057 .00000020 00000+0 -81386-7 0 9999 
2 43254 86.3955 292.9612 0002089 95.9002 264.2432 14.34217649429268 
1 43255U 18030G 26162.07193799 -.00000011 00000+0 -11030-4 0 9995 
2 43255 86.3955 293.0177 0002093 97.2596 262.8838 14.34217192429295 
1 43256U 18030H 26162.10999236 .00000145 00000+0 44666-4 0 9997 
2 43256 86.3951 292.8907 0002026 97.1445 262.9982 14.34216716429267 
1 43257U 18030J 26162.07827999 .00000011 00000+0 -29775-5 0 9998 
2 43257 86.3953 293.0203 0002009 93.1365 267.0061 14.34217589429285 
1 43258U 18030K 26162.05925250 .00000179 00000+0 56994-4 0 9992 
2 43258 86.3958 293.1205 0002064 95.2141 264.9291 14.34217785429212 
1 43478U 18047C 26162.20654569 .00000258 00000+0 70606-4 0 9997 
2 43478 86.4482 90.9716 0002554 86.8449 273.3044 14.43279537424274 
1 43479U 18047D 26162.24127674 -.00000009 00000+0 -10273-4 0 9994 
2 43479 86.3957 90.8180 0002245 83.6257 276.5194 14.34217368421636 
1 43480U 18047E 26162.17785015 .00000048 00000+0 10051-4 0 9992 
2 43480 86.3959 90.8497 0002164 84.9764 275.1679 14.34217724421626 
1 43481U 18047F 26162.18419371 .00000017 00000+0 -92797-6 0 9999 
2 43481 86.3959 90.9387 0002477 84.9258 275.2221 14.34217565421617 
1 43482U 18047G 26162.20025058 .00000258 00000+0 70758-4 0 9995 
2 43482 86.4480 90.8653 0002328 83.0335 277.1130 14.43278191424260 
1 43569U 18061A 26162.19979767 -.00000009 00000+0 -10306-4 0 9999 
2 43569 86.3962 59.3006 0002175 85.7237 274.4207 14.34217369412512 
1 43570U 18061B 26162.22516768 .00000207 00000+0 66677-4 0 9993 
2 43570 86.3968 59.2407 0002135 86.0708 274.0732 14.34217856412540 
1 43571U 18061C 26162.19345443 .00000070 00000+0 18037-4 0 9995 
2 43571 86.3965 59.2640 0002237 81.9886 278.1564 14.34217729412504 
1 43572U 18061D 26162.21882240 .00000119 00000+0 35607-4 0 9996 
2 43572 86.3969 59.2997 0002084 85.7198 274.4236 14.34216776412531 
1 43573U 18061E 26162.18076913 .00000017 00000+0 -11074-5 0 9996 
2 43573 86.3962 59.1847 0002155 82.2759 277.8682 14.34217726412495 
