OBJECT_NAME,OBJECT_ID,EPOCH,MEAN_MOTION,ECCENTRICITY,INCLINATION,RA_OF_ASC_NODE,ARG_OF_PERICENTER,MEAN_ANOMALY,EPHEMERIS_TYPE,CLASSIFICATION_TYPE,NORAD_CAT_ID,ELEMENT_SET_NO,REV_AT_EPOCH,BSTAR,MEAN_MOTION_DOT,MEAN_MOTION_DDOT
IRIDIUM 135,2017-083A,2026-06-10T22:36:43.182144,14.34217681,.00021611,86.3962,324.6271,91.3788,268.7655,0,U,43070,999,44325,.335518E-5,.29E-6,0
IRIDIUM 138,2017-083B,2026-06-11T04:14:39.223968,14.34218043,.00023885,86.3977,324.2235,87.9541,272.1928,0,U,43071,999,44327,.31872809E-4,.109E-5,0
IRIDIUM 116,2017-083C,2026-06-11T00:08:03.166944,14.34217473,.00018856,86.3959,324.5864,95.2789,264.8622,0,U,43072,999,44328,.5362342E-5,.35E-6,0
IRIDIUM 130,2017-083D,2026-06-10T23:22:23.076480,14.34217327,.00018399,86.3964,324.8745,88.9003,271.2403,0,U,43073,999,44322,-.4435793E-4,-.104E-5,0
IRIDIUM 151,2017-083E,2026-06-11T03:47:15.180576,14.34217609,.00021257,86.3962,324.5805,92.0496,268.0944,0,U,43074,999,44327,.7179152E-5,.4E-6,0
IRIDIUM 134,2017-083F,2026-06-11T04:42:03.162816,14.34217545,.00019822,86.3958,324.5724,89.7481,270.3942,0,U,43075,999,44324,-.6741978E-5,.1E-7,0
IRIDIUM 137,2017-083G,2026-06-11T05:00:19.175328,14.34217532,.00020797,86.3963,324.6598,103.4108,256.7320,0,U,43076,999,44331,.8008943E-5,.42E-6,0
IRIDIUM 141,2017-083H,2026-06-11T04:51:11.175552,14.34217920,.00022075,86.3959,324.4935,90.7280,269.4169,0,U,43077,999,44331,.18289027E-4,.71E-6,0
IRIDIUM 153,2017-083J,2026-06-11T02:01:51.442752,14.34217527,.00022041,86.3955,293.0229,90.7564,269.3884,0,U,43078,999,44440,-.3299901E-5,.11E-6,0
IRIDIUM 131,2017-083K,2026-06-11T04:32:55.195008,14.34217316,.00021018,86.3962,324.6845,91.8268,268.3169,0,U,43079,999,44324,-.7771052E-5,-.2E-7,0
IRIDIUM 144,2018-030A,2026-06-11T02:10:59.401920,14.34217426,.00019623,86.3952,292.9495,96.1135,264.0284,0,U,43249,999,42926,-.171131E-6,.19E-6,0
IRIDIUM 149,2018-030B,2026-06-11T02:20:07.402560,14.34217733,.00021421,86.3951,292.9140,93.4906,266.6535,0,U,43250,999,42928,.2269828E-5,.26E-6,0
IRIDIUM 157,2018-030C,2026-06-10T21:46:07.423104,14.34217549,.00020777,86.3953,293.0465,94.3172,265.8261,0,U,43251,999,42923,-.2299371E-5,.13E-6,0
IRIDIUM 140,2018-030D,2026-06-11T01:34:27.392448,14.34217587,.00020114,86.3953,292.9928,93.0061,267.1365,0,U,43252,999,42931,-.1428414E-5,.16E-6,0
IRIDIUM 145,2018-030E,2026-06-11T02:56:39.330816,14.34217344,.00018948,86.3954,292.9410,98.6779,261.4632,0,U,43253,999,42925,.54620942E-4,.173E-5,0
IRIDIUM 146,2018-030F,2026-06-11T02:29:15.409248,14.34217649,.00020891,86.3955,292.9612,95.9002,264.2432,0,U,43254,999,42926,-.81386E-7,.2E-6,0
IRIDIUM 148,2018-030G,2026-06-11T01:43:35.442336,14.34217192,.00020936,86.3955,293.0177,97.2596,262.8838,0,U,43255,999,42929,-.11029657E-4,-.11E-6,0
IRIDIUM 142,2018-030H,2026-06-11T02:38:23.339904,14.34216716,.00020269,86.3951,292.8907,97.1445,262.9982,0,U,43256,999,42926,.44665843E-4,.145E-5,0
IRIDIUM 150,2018-030J,2026-06-11T01:52:43.391136,14.34217589,.00020092,86.3953,293.0203,93.1365,267.0061,0,U,43257,999,42928,-.2977473E-5,.11E-6,0
IRIDIUM 143,2018-030K,2026-06-11T01:25:19.416000,14.34217785,.00020645,86.3958,293.1205,95.2141,264.9291,0,U,43258,999,42921,.5699437E-4,.179E-5,0
IRIDIUM 161,2018-047C,2026-06-11T04:57:25.547616,14.43279537,.00025542,86.4482,90.9716,86.8449,273.3044,0,U,43478,999,42427,.70605759E-4,.258E-5,0
IRIDIUM 152,2018-047D,2026-06-11T05:47:26.310336,14.34217368,.00022451,86.3957,90.8180,83.6257,276.5194,0,U,43479,999,42163,-.10273095E-4,-.9E-7,0
IRIDIUM 147,2018-047E,2026-06-11T04:16:06.252960,14.34217724,.00021649,86.3959,90.8497,84.9764,275.1679,0,U,43480,999,42162,.1005052E-4,.48E-6,0
IRIDIUM 110,2018-047F,2026-06-11T04:25:14.336544,14.34217565,.00024774,86.3959,90.9387,84.9258,275.2221,0,U,43481,999,42161,-.927972E-6,.17E-6,0
IRIDIUM 162,2018-047G,2026-06-11T04:48:21.650112,14.43278191,.00023285,86.4480,90.8653,83.0335,277.1130,0,U,43482,999,42426,.7075755E-4,.258E-5,0
IRIDIUM 160,2018-061A,2026-06-11T04:47:42.518688,14.34217369,.00021757,86.3962,59.3006,85.7237,274.4207,0,U,43569,999,41251,-.10306101E-4,-.9E-7,0
IRIDIUM 166,2018-061B,2026-06-11T05:24:14.487552,14.34217856,.0002135,86.3968,59.2407,86.0708,274.0732,0,U,43570,999,41254,.66676917E-4,.207E-5,0
IRIDIUM 158,2018-061C,2026-06-11T04:38:34.462752,14.34217729,.00022373,86.3965,59.2640,81.9886,278.1564,0,U,43571,999,41250,.18036545E-4,.7E-6,0
IRIDIUM 165,2018-061D,2026-06-11T05:15:06.255360,14.34216776,.00020847,86.3969,59.2997,85.7198,274.4236,0,U,43572,999,41253,.35606956E-4,.119E-5,0
IRIDIUM 155,2018-061E,2026-06-11T04:20:18.452832,14.34217726,.00021555,86.3962,59.1847,82.2759,277.8682,0,U,43573,999,41249,-.110742E-5,.17E-6,0
